[{"OBJECT_NAME":"STARLINK-31144","OBJECT_ID":"2023-211R","EPOCH":"2026-03-09T01:30:41.403744","MEAN_MOTION":15.27577862,"ECCENTRICITY":0.00015079,"INCLINATION":42.9962,"RA_OF_ASC_NODE":88.3841,"ARG_OF_PERICENTER":239.6792,"MEAN_ANOMALY":120.3911,"EPHEMERIS_TYPE":0,"CLASSIFICATION_TYPE":"U","NORAD_CAT_ID":58682,"ELEMENT_SET_NO":999,"REV_AT_EPOCH":12237,"BSTAR":6.0885558e-5,"MEAN_MOTION_DOT":1.414e-5,"MEAN_MOTION_DDOT":0},{"OBJECT_NAME":"KUIPER-00184","OBJECT_ID":"2025-301G","EPOCH":"2026-03-09T22:00:01.999584","MEAN_MOTION":15.32782365,"ECCENTRICITY":0.00116958,"INCLINATION":51.8667,"RA_OF_ASC_NODE":64.5953,"ARG_OF_PERICENTER":53.2996,"MEAN_ANOMALY":333.7065,"EPHEMERIS_TYPE":0,"CLASSIFICATION_TYPE":"U","NORAD_CAT_ID":67139,"ELEMENT_SET_NO":999,"REV_AT_EPOCH":554,"BSTAR":-0.036844053,"MEAN_MOTION_DOT":-0.01088594,"MEAN_MOTION_DDOT":0}]
